OBJECT_NAME,OBJECT_ID,EPOCH,MEAN_MOTION,ECCENTRICITY,INCLINATION,RA_OF_ASC_NODE,ARG_OF_PERICENTER,MEAN_ANOMALY,EPHEMERIS_TYPE,CLASSIFICATION_TYPE,NORAD_CAT_ID,ELEMENT_SET_NO,REV_AT_EPOCH,BSTAR,MEAN_MOTION_DOT,MEAN_MOTION_DDOT
LEMUR-2-CELIJO-SB-PK,2025-276DW,2026-06-17T02:28:43.211424,14.99975195,.00087402,97.5252,238.8839,132.8424,227.3535,0,U,66781,999,2261,.37465393E-3,.4603E-4,0
LEMUR-2-FINNIAN,2025-276DX,2026-06-17T03:31:38.595936,15.00377587,.00088736,97.5286,239.1394,89.5806,270.6435,0,U,66782,999,1999,.43308407E-3,.5387E-4,0
LEMUR-2-STARLIGHT,2025-276DY,2026-06-17T02:28:42.612672,14.99040378,.00151697,97.5267,238.7459,128.2634,231.9956,0,U,66783,999,3018,.3255371E-3,.3901E-4,0
LEMUR-2-TARTIFLETTE,2025-276DZ,2026-06-17T10:27:07.086816,14.99071713,.00140803,97.5266,239.0726,133.6482,226.5911,0,U,66784,999,3023,.30654914E-3,.3672E-4,0
LEMUR-2-VUKASIN,2025-276EA,2026-06-17T10:17:40.677792,15.00370036,.00060024,97.5311,239.3626,121.7435,238.4374,0,U,66785,999,3018,.35548173E-3,.4408E-4,0
LEMUR-2-HOTSPUR-TOM,2025-276EB,2026-06-17T03:51:56.303712,14.98961077,.00154966,97.5263,238.7889,127.8317,232.4312,0,U,66786,999,3012,.37582599E-3,.4504E-4,0
LEMUR-2-MYRA,2025-276EC,2026-06-17T03:02:48.804864,15.00244960,.00165879,97.5216,239.0099,141.6196,218.6212,0,U,66787,999,3020,.49481195E-3,.6154E-4,0
LEMUR-2 FIKRETDENGIZ,2026-004A,2026-06-17T14:31:06.504960,14.88327465,.00101315,97.8015,167.1565,131.8110,228.3974,0,U,67363,999,2334,.37429492E-3,.3412E-4,0
TWILIGHT-1 OBJECT B,2026-004B,2026-06-16T22:58:02.684064,14.87701698,.00099338,97.8061,166.5337,125.0303,235.1847,0,U,67364,999,2325,.17618713E-3,.1552E-4,0
LEMUR-2-MARIO-SOUSA,2026-004C,2026-06-17T14:07:26.441472,14.88515509,.00096872,97.7986,167.1366,132.5346,227.6691,0,U,67365,999,2335,.35467448E-3,.3245E-4,0
LEMUR-2-SONNENBLUME,2026-004E,2026-06-17T06:01:08.129856,14.88315759,.00091784,97.7981,166.7886,134.9568,225.2395,0,U,67367,999,2330,.21389182E-3,.1925E-4,0
LEMUR-2-WOBLER,2026-004F,2026-06-17T12:18:56.755296,14.88518299,.00096217,97.8037,167.1694,124.7531,235.4593,0,U,67368,999,2334,.28226977E-3,.2571E-4,0
LEMUR-2-GRAM-E-SUE,2026-004H,2026-06-17T12:05:29.563296,14.88472174,.00082049,97.7970,167.0529,134.7964,225.3921,0,U,67370,999,2334,.17207051E-3,.1544E-4,0
LEMUR-2-KATIE,2026-004AA,2026-06-16T22:53:04.872768,14.90048007,.00048641,97.8033,166.9697,93.5324,266.6450,0,U,67387,999,2327,.32781081E-3,.311E-4,0
LEMUR-2-HCS-BAZUS,2026-004AB,2026-06-17T14:58:43.527360,14.90075071,.00044481,97.8021,167.6127,89.4033,270.7694,0,U,67388,999,2337,.46146775E-3,.4404E-4,0
